#aV2014  2 24  0  0  0.00000000     288 DD+AD WGS84 FIT  NGA
## 1781  86400.00000000   300.00000000 56712 0.0000000000000
+   30     1  2  3  4  5  7  8  9 10 11 12 13 14 15 16 17 18
+         19 20 21 22 23 24 25 26 27 28 29 31 32  0  0  0  0
+          0  0  0  0  0  0  0  0  0  0  0  0  0  0  0  0  0
+          0  0  0  0  0  0  0  0  0  0  0  0  0  0  0  0  0
+          0  0  0  0  0  0  0  0  0  0  0  0  0  0  0  0  0
++         2  2  2  2  2  2  2  2  2  2  2  2  2  2  2  2  2
++         2  2  2  2  2  2  2  2  2  2  2  2  2  0  0  0  0
++         0  0  0  0  0  0  0  0  0  0  0  0  0  0  0  0  0
++         0  0  0  0  0  0  0  0  0  0  0  0  0  0  0  0  0
++         0  0  0  0  0  0  0  0  0  0  0  0  0  0  0  0  0
%c cc cc ccc ccc cccc cccc cccc cccc ccccc ccccc ccccc ccccc
%c cc cc ccc ccc cccc cccc cccc cccc ccccc ccccc ccccc ccccc
%f  0.0000000  0.000000000  0.00000000000  0.000000000000000
%f  0.0000000  0.000000000  0.00000000000  0.000000000000000
%i    0    0    0    0      0      0      0      0         0
%i    0    0    0    0      0      0      0      0         0
/*      NGA, ST. LOUIS,MO.                                  
/*   EPHEMERIS COMPUTED FROM  1 DAYS OF DATA                
/*   EPOCHA SMOOTHER                                       
/* CCCCCCCCCCCCCCCCCCCCCCCCCCCCCCCCCCCCCCCCCCCCCCCCCCCCCCCCC
*  2014  2 24 15  5  0.00000000
P  1 -12591.919318  22557.367976  -5914.330861      0.966361                    
V  1  -6851.346378   4135.842561  30643.594145      0.020429                    
P  2  19991.203995 -10470.430835 -13324.617484    480.488677                    
V  2  -8025.968471  15992.712712 -24625.560242      0.021669                    
P  3 -13787.220356   7053.767576  21044.080755    330.065615                    
V  3 -14178.753323 -24239.093096   -973.478126      0.050229                    
P  4  15711.274547   5018.409890 -21162.389484      5.753460                    
V  4 -15571.614370  21092.377397  -6415.684598      0.002861                    
P  5  24216.822699  -4090.802244  10274.040527   -387.141017                    
V  5  12574.753029   4515.231463 -27570.560151      0.017235                    
P  7   -491.807610  19622.189500  17804.365593    317.437425                    
V  7 -15546.469801  16428.097300 -18918.945068      0.041898                    
P  8   8848.824263  11543.717242  22335.271694     12.044443                    
V  8 -20038.326564  19487.135362  -2731.696935      0.001760                    
P  9  10104.760137  10507.681546  21665.664272    307.876472                    
V  9 -17994.598493  22415.262651  -2576.325142      0.028106                    
P 10  23855.057655   9548.322016  -7878.987877   -115.671726                    
V 10  -9785.727778   1258.906377 -28932.632057     -0.016267                    
P 11 -12181.370301  22976.894398   4318.922653   -467.057622                    
V 11  -2694.224761  -7559.270665  29576.570492     -0.031966                    
P 12  10665.121885 -12207.498217 -21043.715012    188.440312                    
V 12  26026.455780   5447.859465  10267.993482      0.023504                    
P 13   4357.151852  25796.913548  -4226.319888     26.326402                    
V 13  -3661.909249  -4375.081828 -31638.359598     -0.038882                    
P 14 -14236.653294 -19345.275385 -11278.082397    195.592813                    
V 14  -2416.063648 -14531.726335  27317.724924     -0.032035                    
P 15   8382.042836 -16052.577232  19283.142075   -164.907881                    
V 15  11565.644542  21969.577863  13514.611631     -0.020892                    
P 16 -24299.922250   2429.681581  10837.311506   -230.233957                    
V 16 -13102.583790  -4121.444943 -28013.045697      0.015393                    
P 17  15256.566182  17985.053948 -12194.156122    -71.162474                    
V 17   3312.547002  15567.668086  26331.292770     -0.033787                    
P 18 -10233.597900 -15939.360223  19174.522714    303.798274                    
V 18  23453.245654   1675.150413  13897.550171      0.022405                    
P 19 -10116.991576  14153.672253  19809.217123   -440.932445                    
V 19  -8563.211961 -24116.520053  13207.301467     -0.024252                    
P 20  -8186.569645  14853.161893 -20615.995844    164.589425                    
V 20 -25731.180893  -3129.466857   8111.714242      0.034075                    
P 21  -2641.723020 -19142.835837  18638.020484   -345.836677                    
V 21  15486.024631 -16699.864678 -15958.554479     -0.022270                    
P 22 -21337.810836 -11504.986571  11231.688281    215.486222                    
V 22  14299.534206  -1273.153626  26173.194974      0.026999                    
P 23  -2655.868139  21775.764076 -14582.293270      1.207248                    
V 23  -9240.470599 -16652.347061 -23432.198877     -0.032330                    
P 24  15650.094724 -21380.026379   -886.864991    -23.897124                    
V 24   3054.514232    942.762415  31719.614427     -0.006858                    
P 25  -3604.858502 -15228.741704 -21536.823424     16.034335                    
V 25  26945.034437   3298.280761  -6737.955519      0.016859                    
P 26  14331.333489  -2909.435302  21526.865953    155.877154                    
V 26   8118.394655  27705.540163  -1312.557173     -0.107748                    
P 27 -15579.869318   1366.198536  21470.988670    -19.473080                    
V 27  -9796.325386 -25437.510464  -5450.207257     -0.008380                    
P 28  18394.691374  13489.698476  14329.142899    335.019939                    
V 28 -16971.827644  -2190.169402  24778.652874      0.029256                    
P 29  -3866.247963 -25426.892089  -6680.986638    513.505141                    
V 29   5062.865489   7275.754654 -30371.610903      0.029165                    
P 31 -17105.710223   -697.834624 -20235.818180    333.449282                    
V 31  15999.757297 -20391.571321 -12417.091086      0.002879                    
P 32 -19627.150796   7238.421772 -15967.529663   -480.076795                    
V 32 -19561.510947  -7107.074055  21273.875783      0.066768                    
EOF
